#dP2022  1 20  0  0  0.00000000     289 d+D   IGS14 FIT AIUB
## 2193 345600.00000000   300.00000000 59599 0.0000000000000
+  115   G01G02G03G04G05G06G07G08G09G10G11G12G13G14G15G16G17
+        G18G19G20G21G23G24G25G26G27G28G29G30G31G32R01R02R03
+        R04R05R07R08R09R11R12R13R14R15R17R18R19R20R21R22R24
+        E01E02E03E04E05E07E08E09E11E12E13E14E15E18E19E21E24
+        E25E26E27E30E31E33E36C06C07C08C09C10C11C12C13C14C16
+        C19C20C21C22C23C24C25C26C27C28C29C30C32C33C34C35C36
+        C37C38C39C40C41C42C43C44C45C46J01J02J03  0  0  0  0
++         5  5  5  5  5  5  5  5  5  5  5  5  5  6  5  5  5
++         5  5  5  5  5  5  5  5  5  5  5  5  5  5  5  5  5
++         5  5  5  5  5  5  5  5  5  5  5  5  5  5  5  5  5
++         5  5  7  5  5  5  5  5  5  5  5  5  5  5  5  5  5
++         5  5  5  5  5  5  5  5  5  5  5  5  5  5  5  5  5
++         5  5  5  5  5  5  5  5  5  5  5  5  5  5  5  5  5
++         5  5 10  5  5  5  5  5  5  5  5  5  5  0  0  0  0
%c M  cc GPS ccc cccc cccc cccc cccc ccccc ccccc ccccc ccccc
%c cc cc ccc ccc cccc cccc cccc cccc ccccc ccccc ccccc ccccc
%f  1.2500000  1.025000000  0.00000000000  0.000000000000000
%f  0.0000000  0.000000000  0.00000000000  0.000000000000000
%i    0    0    0    0      0      0      0      0         0
%i    0    0    0    0      0      0      0      0         0
/* Center for Orbit Determination in Europe (CODE)                              
/* MGEX orbits and clocks for year-day 2022-0200                                
/* Middle day of a 3-day long-arc multi-GNSS solution                           
/* Systems considered: GPS/GLONASS/Galileo/BeiDou/QZSS                          
/* Product reference - DOI 10.7892/boris.75882.3                                
/* PCV:IGS14      OL/AL:FES2014b NONE     YN ORB:CoN CLK:CoN                    
*  2022  1 20  9 10  0.00000000
PG01 -11383.434058  20945.829101 -11611.064111    452.611922
PG02  20660.041383 -14161.392433  -8339.002157   -649.074651
PG03  -3312.797533  14662.627162 -22002.457220    -85.627041
PG04  -1707.242015  24734.558580  -9412.629878   -194.075628
PG05  19211.067790  -7221.436577  16779.191675    -68.528402
PG06  17792.207435   1149.177037 -19639.147964    176.245567
PG07   4031.832456  16469.119682  20707.537012    303.448671
PG08  -8342.721061  17477.010900  18001.369088    -52.883018
PG09   7498.607045  25424.565573   1296.000238   -357.315573
PG10 -22885.637371 -11861.336974   7151.645115   -298.252796
PG11  22541.560450 -10308.620838  -9529.694646    -61.376716
PG12   6940.548046 -13500.381626 -22049.774366   -158.544029
PG13  13255.795518  -9844.545713  20614.504825    248.266810
PG14  22021.838968  13013.242339   7269.572162    -73.166005
PG15   6395.107721 -18941.938278  16924.532127    -90.158974
PG16 -22143.377290   1916.368787  14619.815966   -458.201975
PG17  12761.269245  18165.018976 -14113.580616    563.925385
PG18  -3574.128625 -16036.330912  20844.173386    257.256747
PG19  14759.988449  10351.299714 -19826.645999    107.968057
PG20  24961.070015  -2639.834096   8278.894714    517.091265
PG21 -17188.196508  19748.116509   -723.887841    156.487823
PG23 -14262.076867 -15452.330769  16267.455743      9.363212
PG24  13060.374632 -21915.525596  -6860.460096    277.044568
PG25  -6864.702287 -16607.896099 -19926.233536    273.556843
PG26 -26223.534577  -4407.100632   2629.267355    175.997659
PG27 -13643.323119   6293.778058  21680.392342     78.602340
PG28  24515.288334   9875.098025    -36.338159    418.277814
PG29  -3191.238543 -26296.220014  -1527.051968   -469.648838
PG30  12652.897501   9727.571108  21314.049195   -507.974761
PG31 -19792.596045    630.903417 -18040.587048   -160.811668
PG32 -15425.618567 -13814.607873 -16617.376276    -53.495391
PR01  15898.402237   3970.292914  19551.702487      7.125758
PR02   2466.674117 -13155.555647  21767.946072    507.088950
PR03 -10971.381240 -20731.887710  10137.752396     50.214514
PR04 -17983.232192 -16687.250193  -6986.178818    124.308885
PR05 -15105.668946  -3502.785806 -20253.838141     86.267611
PR07  11410.866304  20744.850604  -9391.533874     30.839469
PR08  18085.774653  16490.839144   7188.493991    -63.191878
PR09 -14869.668246  11495.698152  17222.741897     35.047061
PR11  19463.684284   4036.822955  15997.310967     46.916930
PR12  24956.530160  -5046.368742  -1282.546663    296.443124
PR13  15938.766918 -11077.750592 -16566.006566    -17.286801
PR14  -3469.623242 -10647.301590 -22911.412103     73.414189
PR15 -19936.986011  -4004.203194 -15388.470975     98.753283
PR17   2236.823940 -22128.893985  12471.057050    494.218271
PR18  -7052.518091  -9817.655467  22491.292291    104.447282
PR19 -12776.205467   6358.197967  21149.160015   -175.104633
PR20 -11759.888553  21916.036065   5574.880674    -63.387273
PR21  -1599.062090  21501.697938 -13643.208749   -271.512966
PR22   7469.136050   8787.271566 -22745.712413   -159.288883
PR24  11126.524151 -22441.520090  -4768.948651     76.465099
PE01 -29228.275200  -4722.109108   -263.575829   -563.018759
PE02  29224.474766   4613.190232    106.776448    274.797265
PE03  19143.650011   7906.817724  21143.570175   -518.989117
PE04 -12458.174132  13295.564090 -23326.620007   -946.668324
PE05  14702.712755  24853.834066   6496.366222   -216.914627
PE07  -1763.070478 -27113.228859  11739.010258   -630.344397
PE08  12031.832697 -13701.208762  23311.852545   5869.099010
PE09   2103.607718  27158.024214 -11598.860577   5388.875910
PE11  -9274.323696  25099.703455 -12639.699428   4639.163270
PE12 -21077.015281  19632.071828   6788.011489   4801.013650
PE13   9754.996312 -25192.435017  12115.951201    425.810773
PE14 -15315.311375  -2785.346180  17659.109086  -1716.553820
PE15  21037.470476 -19645.437079  -6902.764929    768.237683
PE18  21009.598947   6349.336375 -23867.408573  -1889.868920
PE19 -19106.219393 -10582.659425 -19981.266803    482.065429
PE21 -19639.230411 -14494.221846 -16756.589425   -712.299715
PE24  -3303.542554  16344.832223  24442.083153  -1345.145110
PE25  19399.920779  14582.780804  16939.098805   -560.874953
PE26  -8123.402855 -15216.868210  24065.154958   -708.893936
PE27   1768.181744 -16537.615116 -24485.221936   -213.610833
PE30  22840.005844  -8131.167856 -16976.928313   -206.712809
PE31 -21989.077220   8833.977796  17750.139546   -491.005727
PE33 -19873.361764   2512.485016  21801.065688   -460.214274
PE36   7189.009529  15902.354650 -23895.976232   -320.615026
PC06 -10480.727924  40509.296265  -4133.681768    -91.475296
PC07  -3282.306539  28557.559283  30875.896998     49.325474
PC08 -18157.769858  24933.564579 -28797.162162     73.010312
PC09  -5737.278069  41243.068431   5047.986806   -450.528533
PC10   4181.737310  31099.631265  28601.090285    139.566742
PC11  11245.645900  14336.321684 -21074.297309   -259.430589
PC12    480.225480  26670.490158  -8175.448325   -434.496193
PC13 -11212.915521  25980.263569 -31223.739167   -141.505457
PC14  22186.711981  16901.915118   1567.575554    466.777598
PC16 -11808.217774  39726.154308  -6929.944253     60.697859
PC19 -23726.072282 -10061.369854 -10666.224374    907.627234
PC20 -18030.558929 -20376.292302   6159.583171   -807.988469
PC21   1147.456006  19098.993610 -20304.307975   -967.392451
PC22 -15885.746481   6505.981796 -21997.330001   -959.196504
PC23  24632.802504 -12335.337642  -4418.456142   -970.029763
PC24   9824.456302  13506.958621  22336.315486   -944.931282
PC25  25085.915115   -466.661862  12179.914673   -792.023366
PC26  -8824.495025  18231.723563  19198.849731    790.887103
PC27   5532.506922 -27355.516711   -624.019348    664.186096
PC28  14793.512645 -16887.188632 -16568.340325     22.926371
PC29 -15591.019900  -3192.755649  22920.161181    503.821278
PC30  -7440.642279 -22156.915473  15262.555688    491.509621
PC32  -1192.736657 -19069.828574  20351.049161   -959.163129
PC33  23813.901964   9973.770919  10610.300988   -955.047872
PC34   8007.130399  21455.217559 -15935.085402   -487.794992
PC35 -14460.640774  16729.614021  16997.466768    101.328909
PC36 -24916.788141   -454.607089 -12551.360683   -872.675762
PC37  10316.260734 -18001.198783 -18639.841119   -946.921085
PC38 -23761.516556  26374.103808 -22861.601867    205.369609
PC39 -12219.211582  38492.869138 -11776.929608     34.639998
PC40  -6467.885586  23394.701119  34502.223603    237.156907
PC41  16216.517275  -6244.770885  21882.637707   -925.475659
PC42  17476.673072  20605.319183  -6965.222364   -929.243078
PC43  15567.056768   3982.502361 -22818.213113   -946.944969
PC44  -4691.250742  27477.650153    800.289855    537.547251
PC45 -24556.655806  12454.109283   4633.093052    658.541718
PC46 -11277.146900 -12662.461977 -22173.665552   -124.319713
PJ01 -22304.329085  18534.400204 -26060.481925    287.131420
PJ02 -30360.019877  22140.254193  24041.634462     -0.867593
PJ03 -29368.928899  27748.282736  17318.175580     -0.217760
EOF
